NORAD_CAT_ID,OBJECT_NAME,OBJECT_TYPE,EPOCH,MEAN_MOTION,ECCENTRICITY,INCLINATION,RA_OF_ASC_NODE,ARG_OF_PERICENTER,MEAN_ANOMALY,BSTAR,MEAN_MOTION_DOT,MEAN_MOTION_DDOT,TLE_LINE0,TLE_LINE1,TLE_LINE2,SEMIMAJOR_AXIS,PERIOD,APOGEE,PERIGEE,DECAYED
56448.0,STARLINK-5990,PAYLOAD,2023-10-09 12:31:45,14.98892331,0.0002822,70.0018,208.8024,267.3228,92.7608,0.0037542,0.00045655,0.0,0 STARLINK-5990,1 56448U 23064A   23282.52204964  .00045655  00000-0  37542-2 0  9999,2 56448  70.0018 208.8024 0002822 267.3228  92.7608 14.98892331 23109,6948.454,96.071,572.28,568.359,0.0
56448.0,STARLINK-5990,PAYLOAD,2023-10-09 22:08:16,14.99014019,0.0003016,70.0016,207.7918,273.3345,86.7469,0.0020345,0.00024703,0.0,0 STARLINK-5990,1 56448U 23064A   23282.92240985  .00024703  00000-0  20345-2 0  9990,2 56448  70.0016 207.7918 0003016 273.3345  86.7469 14.99014019 23164,6948.078,96.063,572.039,567.848,0.0
56448.0,STARLINK-5990,PAYLOAD,2023-10-10 02:56:30,14.99061603,0.0002581,70.002,207.2865,257.726,102.3611,0.0014469,0.00017545,0.0,0 STARLINK-5990,1 56448U 23064A   23283.12257912  .00017545  00000-0  14469-2 0  9997,2 56448  70.0020 207.2865 0002581 257.7260 102.3611 14.99061603 23551,6947.931,96.06,571.59,568.003,0.0
56448.0,STARLINK-5990,PAYLOAD,2023-10-10 12:33:00,14.99139368,0.0002758,70.0023,206.2776,275.2669,84.8176,2.6648e-05,2.31e-06,0.0,0 STARLINK-5990,1 56448U 23064A   23283.52291759  .00000231  00000-0  26648-4 0  9996,2 56448  70.0023 206.2776 0002758 275.2669  84.8176 14.99139368 23259,6947.691,96.055,571.472,567.64,0.0
56448.0,STARLINK-5990,PAYLOAD,2023-10-10 22:00:01,14.99150443,0.0003157,70.0029,205.2813,269.1055,55.4824,-0.00123,-0.00015053,0.0,0 STARLINK-5990,1 56448U 23064A   23283.91668981 -.00015053  00000-0 -12300-2 0  9992,2 56448  70.0029 205.2813 0003157 269.1055  55.4824 14.99150443 23678,6947.657,96.054,571.715,567.329,0.0
56448.0,STARLINK-5990,PAYLOAD,2023-10-11 02:57:45,14.99127438,0.0002852,70.0011,204.7584,269.5816,90.5016,-5.3642e-05,-7.47e-06,0.0,0 STARLINK-5990,1 56448U 23064A   23284.12344584 -.00000747  00000-0 -53642-4 0  9996,2 56448  70.0011 204.7584 0002852 269.5816  90.5016 14.99127438 23703,6947.728,96.056,571.574,567.611,0.0
56448.0,STARLINK-5990,PAYLOAD,2023-10-11 12:34:15,14.99134058,0.0002855,70.0014,203.7485,269.9435,90.1397,-3.5022e-05,-5.2e-06,0.0,0 STARLINK-5990,1 56448U 23064A   23284.52378683 -.00000520  00000-0 -35022-4 0  9998,2 56448  70.0014 203.7485 0002855 269.9435  90.1397 14.99134058 23400,6947.708,96.055,571.556,567.589,0.0
56448.0,STARLINK-5990,PAYLOAD,2023-10-11 18:58:34,14.99138718,0.0002785,70.0011,203.0745,270.5274,89.5566,-2.2584e-05,-3.69e-06,0.0,0 STARLINK-5990,1 56448U 23064A   23284.79068013 -.00000369  00000-0 -22584-4 0  9990,2 56448  70.0011 203.0745 0002785 270.5274  89.5566 14.99138718 23801,6947.693,96.055,571.493,567.623,0.0
56448.0,STARLINK-5990,PAYLOAD,2023-10-12 04:35:03,14.99148154,0.0002768,70.0013,202.0648,267.7439,92.3404,1.1148e-05,4.2e-07,0.0,0 STARLINK-5990,1 56448U 23064A   23285.19101676  .00000042  00000-0  11148-4 0  9998,2 56448  70.0013 202.0648 0002768 267.7439  92.3404 14.99148154 23860,6947.664,96.055,571.452,567.606,0.0
56448.0,STARLINK-5990,PAYLOAD,2023-10-12 20:35:53,14.99133026,0.0002833,70.0017,200.3805,273.8596,86.224,0.00017259,2.01e-05,0.0,0 STARLINK-5990,1 56448U 23064A   23285.85826107  .00002010  00000-0  17259-3 0  9999,2 56448  70.0017 200.3805 0002833 273.8596  86.2240 14.99133026 23968,6947.711,96.056,571.544,567.607,0.0
56448.0,STARLINK-5990,PAYLOAD,2023-10-12 22:11:58,14.99132756,0.000285,70.0017,200.2121,273.6619,86.4215,0.00016986,1.976e-05,0.0,0 STARLINK-5990,1 56448U 23064A   23285.92498548  .00001976  00000-0  16986-3 0  9997,2 56448  70.0017 200.2121 0002850 273.6619  86.4215 14.99132756 23616,6947.712,96.056,571.557,567.596,0.0
56448.0,STARLINK-5990,PAYLOAD,2023-10-13 04:36:17,14.99148174,0.0002937,70.001,199.5388,266.2325,93.8499,0.00023802,2.808e-05,0.0,0 STARLINK-5990,1 56448U 23064A   23286.19186900  .00002808  00000-0  23802-3 0  9993,2 56448  70.0010 199.5388 0002937 266.2325  93.8499 14.99148174 24014,6947.664,96.055,571.569,567.488,0.0
56448.0,STARLINK-5990,PAYLOAD,2023-10-13 11:00:38,14.99137827,0.0002282,70.0038,198.8647,270.4588,89.631,7.8307e-05,8.61e-06,0.0,0 STARLINK-5990,1 56448U 23064A   23286.45877744  .00000861  00000-0  78307-4 0  9993,2 56448  70.0038 198.8647 0002282 270.4588  89.6310 14.99137827 24057,6947.696,96.055,571.146,567.975,0.0
56448.0,STARLINK-5990,PAYLOAD,2023-10-13 22:13:12,14.99142652,0.0002685,70.0017,197.6861,272.5558,87.5294,2.1976e-06,-6.7e-07,0.0,0 STARLINK-5990,1 56448U 23064A   23286.92584247 -.00000067  00000-0  21976-5 0  9998,2 56448  70.0017 197.6861 0002685 272.5558  87.5294 14.99142652 23763,6947.681,96.055,571.411,567.681,0.0
56448.0,STARLINK-5990,PAYLOAD,2023-10-14 04:37:31,14.99148865,0.000261,70.002,197.0117,273.2065,86.8795,0.00011557,1.315e-05,0.0,0 STARLINK-5990,1 56448U 23064A   23287.19272991  .00001315  00000-0  11557-3 0  9996,2 56448  70.0020 197.0117 0002610 273.2065  86.8795 14.99148865 24169,6947.662,96.055,571.34,567.713,0.0
56448.0,STARLINK-5990,PAYLOAD,2023-10-14 20:38:26,14.99086526,0.0004275,70.0005,195.3288,286.6175,73.4515,-0.00067003,-8.238e-05,0.0,0 STARLINK-5990,1 56448U 23064A   23287.86002894 -.00008238  00000-0 -67003-3 0  9993,2 56448  70.0005 195.3288 0004275 286.6175  73.4515 14.99086526 24269,6947.854,96.058,572.69,566.749,0.0
56448.0,STARLINK-5990,PAYLOAD,2023-10-14 22:14:31,14.99085778,0.0003755,70.0005,195.1599,279.0274,81.0461,-0.00068183,-8.381e-05,0.0,0 STARLINK-5990,1 56448U 23064A   23287.92675480 -.00008381  00000-0 -68183-3 0  9996,2 56448  70.0005 195.1599 0003755 279.0274  81.0461 14.99085778 23914,6947.857,96.059,572.331,567.113,0.0
56448.0,STARLINK-5990,PAYLOAD,2023-10-15 03:02:56,14.98967853,0.0002732,70.0007,194.6555,270.6913,89.3933,-0.0018991,-0.00023055,0.0,0 STARLINK-5990,1 56448U 23064A   23288.12704525 -.00023055  00000-0 -18991-2 0  9998,2 56448  70.0007 194.6555 0002732 270.6913  89.3933 14.98967853 24304,6948.221,96.066,571.984,568.188,0.0
56448.0,STARLINK-5990,PAYLOAD,2023-10-15 11:03:41,14.98752636,0.0002869,70.001,193.8136,269.4471,90.636,-0.0041367,-0.00049643,0.0,0 STARLINK-5990,1 56448U 23064A   23288.46090272 -.00049643  00000-0 -41367-2 0  9996,2 56448  70.0010 193.8136 0002869 269.4471  90.6360 14.98752636 24355,6948.886,96.08,572.745,568.758,0.0
56448.0,STARLINK-5990,PAYLOAD,2023-10-15 20:40:24,14.98681136,0.000285,70.0018,192.8041,262.0189,98.0646,-0.0043305,-0.00051852,0.0,0 STARLINK-5990,1 56448U 23064A   23288.86139799 -.00051852  00000-0 -43305-2 0  9997,2 56448  70.0018 192.8041 0002850 262.0189  98.0646 14.98681136 24414,6949.107,96.084,572.953,568.992,0.0
56448.0,STARLINK-5990,PAYLOAD,2023-10-16 04:41:00,14.98646042,0.0003171,70.0007,191.9615,265.9904,94.0893,-0.0043612,-0.0005217,0.0,0 STARLINK-5990,1 56448U 23064A   23289.19514091 -.00052170  00000-0 -43612-2 0  9991,2 56448  70.0007 191.9615 0003171 265.9904  94.0893 14.98646042 24465,6949.216,96.087,573.284,568.877,0.0
56448.0,STARLINK-5990,PAYLOAD,2023-10-16 17:29:57,14.98560982,0.0003227,70.0008,190.6146,264.1905,95.8886,-0.0035485,-0.00042431,0.0,0 STARLINK-5990,1 56448U 23064A   23289.72914249 -.00042431  00000-0 -35485-2 0  9997,2 56448  70.0008 190.6146 0003227 264.1905  95.8886 14.98560982 24543,6949.479,96.092,573.586,569.101,0.0
56448.0,STARLINK-5990,PAYLOAD,2023-10-17 11:07:21,14.98461298,0.0003085,70.0006,188.7631,278.2299,81.851,-0.0021448,-0.00025678,0.0,0 STARLINK-5990,1 56448U 23064A   23290.46344538 -.00025678  00000-0 -21448-2 0  9996,2 56448  70.0006 188.7631 0003085 278.2299  81.8510 14.98461298 24653,6949.787,96.099,573.796,569.508,0.0
56448.0,STARLINK-5990,PAYLOAD,2023-10-18 01:32:33,14.98332484,0.0003062,70.0009,187.248,268.355,91.7258,0.00052415,6.167e-05,0.0,0 STARLINK-5990,1 56448U 23064A   23291.06428174  .00006167  00000-0  52415-3 0  9991,2 56448  70.0009 187.2480 0003062 268.3550  91.7258 14.98332484 24380,6950.185,96.107,574.178,569.922,0.0
56448.0,STARLINK-5990,PAYLOAD,2023-10-18 03:08:41,14.9835153,0.0003237,70.0004,187.0802,267.1185,92.9604,0.00033468,3.905e-05,0.0,0 STARLINK-5990,1 56448U 23064A   23291.13103450  .00003905  00000-0  33468-3 0  9990,2 56448  70.0004 187.0802 0003237 267.1185  92.9604 14.98351530 24758,6950.126,96.106,574.241,569.742,0.0
56448.0,STARLINK-5990,PAYLOAD,2023-10-18 15:57:47,14.98329688,0.000306,70.0015,185.7346,274.0881,85.9928,7.801e-05,8.38e-06,0.0,0 STARLINK-5990,1 56448U 23064A   23291.66513388  .00000838  00000-0  78010-4 0  9998,2 56448  70.0015 185.7346 0003060 274.0881  85.9928 14.98329688 24831,6950.194,96.107,574.186,569.932,0.0
56448.0,STARLINK-5990,PAYLOAD,2023-10-19 03:10:44,14.98323737,0.0002998,70.0009,184.5553,273.4519,86.6297,-4.1282e-05,-5.85e-06,0.0,0 STARLINK-5990,1 56448U 23064A   23292.13246156 -.00000585  00000-0 -41282-4 0  9999,2 56448  70.0009 184.5553 0002998 273.4519  86.6297 14.98323737 24905,6950.212,96.107,574.161,569.994,0.0
56448.0,STARLINK-5990,PAYLOAD,2023-10-19 15:59:48,14.98337859,0.000279,70.0015,183.2087,277.1484,82.9358,-0.00019541,-2.424e-05,0.0,0 STARLINK-5990,1 56448U 23064A   23292.66653864 -.00002424  00000-0 -19541-3 0  9991,2 56448  70.0015 183.2087 0002790 277.1484  82.9358 14.98337859 24987,6950.169,96.106,573.973,570.094,0.0
56448.0,STARLINK-5990,PAYLOAD,2023-10-19 22:24:21,14.98335914,0.0002931,70.0015,182.5358,275.2792,84.8033,-0.00015102,-1.895e-05,0.0,0 STARLINK-5990,1 56448U 23064A   23292.93357719 -.00001895  00000-0 -15102-3 0  9991,2 56448  70.0015 182.5358 0002931 275.2792  84.8033 14.98335914 24664,6950.175,96.107,574.077,570.003,0.0
56448.0,STARLINK-5990,PAYLOAD,2023-10-20 03:12:44,14.98348082,0.0003056,70.0007,182.0311,275.4452,84.6358,-0.00014566,-1.831e-05,0.0,0 STARLINK-5990,1 56448U 23064A   23293.13384697 -.00001831  00000-0 -14566-3 0  9992,2 56448  70.0007 182.0311 0003056 275.4452  84.6358 14.98348082 25055,6950.137,96.106,574.126,569.878,0.0
